start=new Date('2023-02-23T00:00:00.000Z').valueOf();
sats=[{"INCLINATION":"53.2138","ARG_OF_PERICENTER":"131.0273","TLE_LINE1":"1 51887U 22022AM  23053.91284876 -.00001891  00000-0 -10078-3 0  9995","DECAY_DATE":null,"MEAN_ELEMENT_THEORY":"SGP4","OBJECT_ID":"2022-022AM","MEAN_MOTION_DDOT":"0.0000000000000","NORAD_CAT_ID":"51887","REV_AT_EPOCH":"5555","EPHEMERIS_TYPE":"0","LAUNCH_DATE":"2022-03-03","REF_FRAME":"TEME","MEAN_MOTION":"15.08828344","GP_ID":"226474645","CLASSIFICATION_TYPE":"U","SEMIMAJOR_AXIS":"6917.916","CENTER_NAME":"EARTH","OBJECT_NAME":"STARLINK-3551","PERIOD":"95.438","APOAPSIS":"540.536","COUNTRY_CODE":"US","OBJECT_TYPE":"PAYLOAD","FILE":"3825529","BSTAR":"-0.00010078000000","RA_OF_ASC_NODE":"305.5952","ECCENTRICITY":"0.00010920","SITE":"AFETR","RCS_SIZE":"LARGE","MEAN_MOTION_DOT":"-0.00001891","ELEMENT_SET_NO":"999","MEAN_ANOMALY":"229.0814","PERIAPSIS":"539.026","EPOCH":"2023-02-22T21:54:30.132864","TLE_LINE2":"2 51887  53.2138 305.5952 0001092 131.0273 229.0814 15.08828344 55550","TIME_SYSTEM":"UTC"},{"EPHEMERIS_TYPE":"0","NORAD_CAT_ID":"51888","REV_AT_EPOCH":"5556","LAUNCH_DATE":"2022-03-03","REF_FRAME":"TEME","GP_ID":"226474896","CLASSIFICATION_TYPE":"U","SEMIMAJOR_AXIS":"6917.900","MEAN_MOTION":"15.08833565","CENTER_NAME":"EARTH","PERIOD":"95.438","OBJECT_NAME":"STARLINK-3536","INCLINATION":"53.2163","TLE_LINE1":"1 51888U 22022AN  23053.92021185  .00011715  00000-0  75303-3 0  9995","ARG_OF_PERICENTER":"100.4025","DECAY_DATE":null,"MEAN_MOTION_DDOT":"0.0000000000000","MEAN_ELEMENT_THEORY":"SGP4","OBJECT_ID":"2022-022AN","ELEMENT_SET_NO":"999","MEAN_MOTION_DOT":"0.00011715","SITE":"AFETR","RCS_SIZE":"LARGE","PERIAPSIS":"538.900","MEAN_ANOMALY":"259.7108","TLE_LINE2":"2 51888  53.2163 305.5612 0001250 100.4025 259.7108 15.08833565 55561","EPOCH":"2023-02-22T22:05:06.303840","TIME_SYSTEM":"UTC","APOAPSIS":"540.630","OBJECT_TYPE":"PAYLOAD","COUNTRY_CODE":"US","FILE":"3825529","BSTAR":"0.00075303000000","RA_OF_ASC_NODE":"305.5612","ECCENTRICITY":"0.00012500"},{"SEMIMAJOR_AXIS":"6917.880","GP_ID":"226475121","CLASSIFICATION_TYPE":"U","MEAN_MOTION":"15.08840110","PERIOD":"95.438","OBJECT_NAME":"STARLINK-3547","CENTER_NAME":"EARTH","EPHEMERIS_TYPE":"0","NORAD_CAT_ID":"51889","REV_AT_EPOCH":"5555","REF_FRAME":"TEME","LAUNCH_DATE":"2022-03-03","DECAY_DATE":null,"MEAN_MOTION_DDOT":"0.0000000000000","OBJECT_ID":"2022-022AP","MEAN_ELEMENT_THEORY":"SGP4","INCLINATION":"53.2147","TLE_LINE1":"1 51889U 22022AP  23053.90180858  .00007569  00000-0  49313-3 0  9991","ARG_OF_PERICENTER":"82.5198","TLE_LINE2":"2 51889  53.2147 305.6474 0001085  82.5198 277.5917 15.08840110 55557","EPOCH":"2023-02-22T21:38:36.261312","TIME_SYSTEM":"UTC","ELEMENT_SET_NO":"999","MEAN_MOTION_DOT":"0.00007569","SITE":"AFETR","RCS_SIZE":"LARGE","PERIAPSIS":"538.994","MEAN_ANOMALY":"277.5917","RA_OF_ASC_NODE":"305.6474","BSTAR":"0.00049313000000","ECCENTRICITY":"0.00010850","OBJECT_TYPE":"PAYLOAD","COUNTRY_CODE":"US","APOAPSIS":"540.496","FILE":"3825529"},{"ECCENTRICITY":"0.00012510","RA_OF_ASC_NODE":"305.6144","BSTAR":"-0.00010316000000","FILE":"3825529","COUNTRY_CODE":"US","OBJECT_TYPE":"PAYLOAD","APOAPSIS":"540.652","TIME_SYSTEM":"UTC","TLE_LINE2":"2 51890  53.2146 305.6144 0001251  90.4370 269.6765 15.08826500 55557","EPOCH":"2023-02-22T21:49:12.581760","PERIAPSIS":"538.921","MEAN_ANOMALY":"269.6765","ELEMENT_SET_NO":"999","SITE":"AFETR","RCS_SIZE":"LARGE","MEAN_MOTION_DOT":"-0.00001929","MEAN_MOTION_DDOT":"0.0000000000000","OBJECT_ID":"2022-022AQ","MEAN_ELEMENT_THEORY":"SGP4","DECAY_DATE":null,"TLE_LINE1":"1 51890U 22022AQ  23053.90917340 -.00001929  00000-0 -10316-3 0  9994","ARG_OF_PERICENTER":"90.4370","INCLINATION":"53.2146","PERIOD":"95.438","OBJECT_NAME":"STARLINK-3519","CENTER_NAME":"EARTH","SEMIMAJOR_AXIS":"6917.922","GP_ID":"226473896","CLASSIFICATION_TYPE":"U","MEAN_MOTION":"15.08826500","LAUNCH_DATE":"2022-03-03","REF_FRAME":"TEME","EPHEMERIS_TYPE":"0","NORAD_CAT_ID":"51890","REV_AT_EPOCH":"5555"},{"TIME_SYSTEM":"UTC","EPOCH":"2023-02-22T21:33:19.952640","TLE_LINE2":"2 51891  53.2144 305.6640 0001864 107.0371 253.0826 15.08819219 55603","MEAN_ANOMALY":"253.0826","PERIAPSIS":"538.519","SITE":"AFETR","MEAN_MOTION_DOT":"-0.00000524","RCS_SIZE":"LARGE","ELEMENT_SET_NO":"999","ECCENTRICITY":"0.00018640","BSTAR":"-0.00001484700000","RA_OF_ASC_NODE":"305.6640","FILE":"3825529","APOAPSIS":"541.098","OBJECT_TYPE":"PAYLOAD","COUNTRY_CODE":"US","CENTER_NAME":"EARTH","PERIOD":"95.439","OBJECT_NAME":"STARLINK-3549","MEAN_MOTION":"15.08819219","CLASSIFICATION_TYPE":"U","GP_ID":"226474146","SEMIMAJOR_AXIS":"6917.944","LAUNCH_DATE":"2022-03-03","REF_FRAME":"TEME","REV_AT_EPOCH":"5560","NORAD_CAT_ID":"51891","EPHEMERIS_TYPE":"0","MEAN_ELEMENT_THEORY":"SGP4","OBJECT_ID":"2022-022AR","MEAN_MOTION_DDOT":"0.0000000000000","DECAY_DATE":null,"TLE_LINE1":"1 51891U 22022AR  23053.89814760 -.00000524  00000-0 -14847-4 0  9999","ARG_OF_PERICENTER":"107.0371","INCLINATION":"53.2144"},{"MEAN_ANOMALY":"252.0443","PERIAPSIS":"539.089","RCS_SIZE":"LARGE","SITE":"AFETR","MEAN_MOTION_DOT":"0.00003492","ELEMENT_SET_NO":"999","TIME_SYSTEM":"UTC","EPOCH":"2023-02-22T21:43:54.238368","TLE_LINE2":"2 51892  53.2140 305.6313 0000990 108.0657 252.0443 15.08830681 55558","FILE":"3825529","APOAPSIS":"540.459","OBJECT_TYPE":"PAYLOAD","COUNTRY_CODE":"US","ECCENTRICITY":"0.00009900","BSTAR":"0.00023742000000","RA_OF_ASC_NODE":"305.6313","REF_FRAME":"TEME","LAUNCH_DATE":"2022-03-03","NORAD_CAT_ID":"51892","REV_AT_EPOCH":"5555","EPHEMERIS_TYPE":"0","CENTER_NAME":"EARTH","PERIOD":"95.438","OBJECT_NAME":"STARLINK-3587","MEAN_MOTION":"15.08830681","CLASSIFICATION_TYPE":"U","GP_ID":"226475397","SEMIMAJOR_AXIS":"6917.909","TLE_LINE1":"1 51892U 22022AS  23053.90548887  .00003492  00000-0  23742-3 0  9994","ARG_OF_PERICENTER":"108.0657","INCLINATION":"53.2140","MEAN_ELEMENT_THEORY":"SGP4","OBJECT_ID":"2022-022AS","MEAN_MOTION_DDOT":"0.0000000000000","DECAY_DATE":null},{"TLE_LINE1":"1 51893U 22022AT  23053.95701353  .00001250  00000-0  96670-4 0  9990","ARG_OF_PERICENTER":"81.5389","INCLINATION":"53.2139","OBJECT_ID":"2022-022AT","MEAN_ELEMENT_THEORY":"SGP4","MEAN_MOTION_DDOT":"0.0000000000000","DECAY_DATE":null,"LAUNCH_DATE":"2022-03-03","REF_FRAME":"TEME","REV_AT_EPOCH":"5562","NORAD_CAT_ID":"51893","EPHEMERIS_TYPE":"0","PERIOD":"95.438","OBJECT_NAME":"STARLINK-3579","CENTER_NAME":"EARTH","MEAN_MOTION":"15.08831142","SEMIMAJOR_AXIS":"6917.907","GP_ID":"226475622","CLASSIFICATION_TYPE":"U","FILE":"3825529","OBJECT_TYPE":"PAYLOAD","COUNTRY_CODE":"US","APOAPSIS":"540.919","ECCENTRICITY":"0.00016570","RA_OF_ASC_NODE":"305.4004","BSTAR":"0.00009667000000","MEAN_ANOMALY":"278.5791","PERIAPSIS":"538.626","SITE":"AFETR","RCS_SIZE":"LARGE","MEAN_MOTION_DOT":"0.00001250","ELEMENT_SET_NO":"999","TIME_SYSTEM":"UTC","EPOCH":"2023-02-22T22:58:05.968992","TLE_LINE2":"2 51893  53.2139 305.4004 0001657  81.5389 278.5791 15.08831142 55620"},{"OBJECT_ID":"2022-022AU","MEAN_ELEMENT_THEORY":"SGP4","MEAN_MOTION_DDOT":"0.0000000000000","DECAY_DATE":null,"ARG_OF_PERICENTER":"77.2837","TLE_LINE1":"1 51894U 22022AU  23053.96069124 -.00001151  00000-0 -54276-4 0  9993","INCLINATION":"53.2151","PERIOD":"95.438","OBJECT_NAME":"STARLINK-3595","CENTER_NAME":"EARTH","MEAN_MOTION":"15.08825432","SEMIMAJOR_AXIS":"6917.925","CLASSIFICATION_TYPE":"U","GP_ID":"226474397","LAUNCH_DATE":"2022-03-03","REF_FRAME":"TEME","NORAD_CAT_ID":"51894","REV_AT_EPOCH":"5562","EPHEMERIS_TYPE":"0","ECCENTRICITY":"0.00015670","RA_OF_ASC_NODE":"305.3815","BSTAR":"-0.00005427600000","FILE":"3825529","OBJECT_TYPE":"PAYLOAD","COUNTRY_CODE":"US","APOAPSIS":"540.874","TIME_SYSTEM":"UTC","EPOCH":"2023-02-22T23:03:23.723136","TLE_LINE2":"2 51894  53.2151 305.3815 0001567  77.2837 282.8331 15.08825432 55627","MEAN_ANOMALY":"282.8331","PERIAPSIS":"538.706","SITE":"AFETR","MEAN_MOTION_DOT":"-0.00001151","RCS_SIZE":"LARGE","ELEMENT_SET_NO":"999"},{"INCLINATION":"53.2134","TLE_LINE1":"1 51895U 22022AV  23053.95333043  .00003739  00000-0  25296-3 0  9998","ARG_OF_PERICENTER":"82.6443","DECAY_DATE":null,"MEAN_MOTION_DDOT":"0.0000000000000","MEAN_ELEMENT_THEORY":"SGP4","OBJECT_ID":"2022-022AV","EPHEMERIS_TYPE":"0","REV_AT_EPOCH":"5556","NORAD_CAT_ID":"51895","REF_FRAME":"TEME","LAUNCH_DATE":"2022-03-03","CLASSIFICATION_TYPE":"U","GP_ID":"226474646","SEMIMAJOR_AXIS":"6917.903","MEAN_MOTION":"15.08832637","CENTER_NAME":"EARTH","PERIOD":"95.438","OBJECT_NAME":"STARLINK-3594","APOAPSIS":"540.671","COUNTRY_CODE":"US","OBJECT_TYPE":"PAYLOAD","FILE":"3825529","BSTAR":"0.00025296000000","RA_OF_ASC_NODE":"305.4145","ECCENTRICITY":"0.00013050","ELEMENT_SET_NO":"999","SITE":"AFETR","MEAN_MOTION_DOT":"0.00003739","RCS_SIZE":"LARGE","PERIAPSIS":"538.865","MEAN_ANOMALY":"277.4698","TLE_LINE2":"2 51895  53.2134 305.4145 0001305  82.6443 277.4698 15.08832637 55563","EPOCH":"2023-02-22T22:52:47.749152","TIME_SYSTEM":"UTC"},{"MEAN_MOTION_DDOT":"0.0000000000000","MEAN_ELEMENT_THEORY":"SGP4","OBJECT_ID":"2022-022AW","DECAY_DATE":null,"TLE_LINE1":"1 51896U 22022AW  23053.95428438 -.00000955  00000-0 -41962-4 0  9990","ARG_OF_PERICENTER":"74.0137","INCLINATION":"53.2141","CENTER_NAME":"EARTH","PERIOD":"95.438","OBJECT_NAME":"STARLINK-3593","GP_ID":"226474897","CLASSIFICATION_TYPE":"U","SEMIMAJOR_AXIS":"6917.913","MEAN_MOTION":"15.08829332","LAUNCH_DATE":"2022-03-03","REF_FRAME":"TEME","EPHEMERIS_TYPE":"0","REV_AT_EPOCH":"5561","NORAD_CAT_ID":"51896","ECCENTRICITY":"0.00006170","BSTAR":"-0.00004196200000","RA_OF_ASC_NODE":"305.4100","FILE":"3825529","APOAPSIS":"540.205","OBJECT_TYPE":"PAYLOAD","COUNTRY_CODE":"US","TIME_SYSTEM":"UTC","TLE_LINE2":"2 51896  53.2141 305.4100 0000617  74.0137 286.0923 15.08829332 55614","EPOCH":"2023-02-22T22:54:10.170432","PERIAPSIS":"539.351","MEAN_ANOMALY":"286.0923","ELEMENT_SET_NO":"999","MEAN_MOTION_DOT":"-0.00000955","SITE":"AFETR","RCS_SIZE":"LARGE"}];
